CCSDS_OMM_VERS = 2.0
CREATION_DATE  = 
ORIGINATOR     = 

OBJECT_NAME    = STARLINK-37046
OBJECT_ID      = 2026-044B
CENTER_NAME    = EARTH
REF_FRAME      = TEME
TIME_SYSTEM    = UTC
MEAN_ELEMENT_THEORY = SGP/SGP4

EPOCH          = 2026-03-25T14:17:11.182848
MEAN_MOTION    = 15.75269246
ECCENTRICITY   = .00018449
INCLINATION    = 97.2833
RA_OF_ASC_NODE = 45.5160
ARG_OF_PERICENTER = 89.6567
MEAN_ANOMALY   = 270.4910

EPHEMERIS_TYPE = 0
CLASSIFICATION_TYPE = U
NORAD_CAT_ID   = 68102
ELEMENT_SET_NO = 999
REV_AT_EPOCH   = 398
BSTAR          = .1326728E-2
MEAN_MOTION_DOT = .203239E-2
MEAN_MOTION_DDOT = 0

CCSDS_OMM_VERS = 2.0
CREATION_DATE  = 
ORIGINATOR     = 

OBJECT_NAME    = STARLINK-37018
OBJECT_ID      = 2026-044C
CENTER_NAME    = EARTH
REF_FRAME      = TEME
TIME_SYSTEM    = UTC
MEAN_ELEMENT_THEORY = SGP/SGP4

EPOCH          = 2026-03-25T14:15:09.110880
MEAN_MOTION    = 15.75282849
ECCENTRICITY   = .0001799
INCLINATION    = 97.2835
RA_OF_ASC_NODE = 45.5184
ARG_OF_PERICENTER = 103.1434
MEAN_ANOMALY   = 257.0032

EPHEMERIS_TYPE = 0
CLASSIFICATION_TYPE = U
NORAD_CAT_ID   = 68103
ELEMENT_SET_NO = 999
REV_AT_EPOCH   = 398
BSTAR          = .13611971E-2
MEAN_MOTION_DOT = .208781E-2
MEAN_MOTION_DDOT = 0

CCSDS_OMM_VERS = 2.0
CREATION_DATE  = 
ORIGINATOR     = 

OBJECT_NAME    = STARLINK-37041
OBJECT_ID      = 2026-044D
CENTER_NAME    = EARTH
REF_FRAME      = TEME
TIME_SYSTEM    = UTC
MEAN_ELEMENT_THEORY = SGP/SGP4

EPOCH          = 2026-03-25T14:13:37.820640
MEAN_MOTION    = 15.75236343
ECCENTRICITY   = .00015998
INCLINATION    = 97.2831
RA_OF_ASC_NODE = 45.5196
ARG_OF_PERICENTER = 77.5245
MEAN_ANOMALY   = 282.6199

EPHEMERIS_TYPE = 0
CLASSIFICATION_TYPE = U
NORAD_CAT_ID   = 68104
ELEMENT_SET_NO = 999
REV_AT_EPOCH   = 398
BSTAR          = .92764307E-3
MEAN_MOTION_DOT = .140822E-2
MEAN_MOTION_DDOT = 0

CCSDS_OMM_VERS = 2.0
CREATION_DATE  = 
ORIGINATOR     = 

OBJECT_NAME    = STARLINK-37021
OBJECT_ID      = 2026-044E
CENTER_NAME    = EARTH
REF_FRAME      = TEME
TIME_SYSTEM    = UTC
MEAN_ELEMENT_THEORY = SGP/SGP4

EPOCH          = 2026-03-25T14:11:35.830752
MEAN_MOTION    = 15.75276648
ECCENTRICITY   = .00014398
INCLINATION    = 97.2834
RA_OF_ASC_NODE = 45.5206
ARG_OF_PERICENTER = 81.8728
MEAN_ANOMALY   = 278.2700

EPHEMERIS_TYPE = 0
CLASSIFICATION_TYPE = U
NORAD_CAT_ID   = 68105
ELEMENT_SET_NO = 999
REV_AT_EPOCH   = 398
BSTAR          = .14911078E-2
MEAN_MOTION_DOT = .229208E-2
MEAN_MOTION_DDOT = 0

CCSDS_OMM_VERS = 2.0
CREATION_DATE  = 
ORIGINATOR     = 

OBJECT_NAME    = STARLINK-37024
OBJECT_ID      = 2026-044F
CENTER_NAME    = EARTH
REF_FRAME      = TEME
TIME_SYSTEM    = UTC
MEAN_ELEMENT_THEORY = SGP/SGP4

EPOCH          = 2026-03-25T14:10:04.339200
MEAN_MOTION    = 15.75244094
ECCENTRICITY   = .00016623
INCLINATION    = 97.2838
RA_OF_ASC_NODE = 45.5228
ARG_OF_PERICENTER = 119.5362
MEAN_ANOMALY   = 240.6069

EPHEMERIS_TYPE = 0
CLASSIFICATION_TYPE = U
NORAD_CAT_ID   = 68106
ELEMENT_SET_NO = 999
REV_AT_EPOCH   = 398
BSTAR          = .81412588E-3
MEAN_MOTION_DOT = .123361E-2
MEAN_MOTION_DDOT = 0

CCSDS_OMM_VERS = 2.0
CREATION_DATE  = 
ORIGINATOR     = 

OBJECT_NAME    = STARLINK-37005
OBJECT_ID      = 2026-044G
CENTER_NAME    = EARTH
REF_FRAME      = TEME
TIME_SYSTEM    = UTC
MEAN_ELEMENT_THEORY = SGP/SGP4

EPOCH          = 2026-03-25T14:14:08.346624
MEAN_MOTION    = 15.75274095
ECCENTRICITY   = .0001441
INCLINATION    = 97.2832
RA_OF_ASC_NODE = 45.5186
ARG_OF_PERICENTER = 107.9508
MEAN_ANOMALY   = 252.1915

EPHEMERIS_TYPE = 0
CLASSIFICATION_TYPE = U
NORAD_CAT_ID   = 68107
ELEMENT_SET_NO = 999
REV_AT_EPOCH   = 398
BSTAR          = .1549841E-2
MEAN_MOTION_DOT = .238477E-2
MEAN_MOTION_DDOT = 0

CCSDS_OMM_VERS = 2.0
CREATION_DATE  = 
ORIGINATOR     = 

OBJECT_NAME    = STARLINK-37017
OBJECT_ID      = 2026-044H
CENTER_NAME    = EARTH
REF_FRAME      = TEME
TIME_SYSTEM    = UTC
MEAN_ELEMENT_THEORY = SGP/SGP4

EPOCH          = 2026-03-25T14:09:33.931584
MEAN_MOTION    = 15.75246750
ECCENTRICITY   = .00017989
INCLINATION    = 97.2833
RA_OF_ASC_NODE = 45.5234
ARG_OF_PERICENTER = 64.0787
MEAN_ANOMALY   = 296.0663

EPHEMERIS_TYPE = 0
CLASSIFICATION_TYPE = U
NORAD_CAT_ID   = 68108
ELEMENT_SET_NO = 999
REV_AT_EPOCH   = 398
BSTAR          = .95607582E-3
MEAN_MOTION_DOT = .145285E-2
MEAN_MOTION_DDOT = 0

CCSDS_OMM_VERS = 2.0
CREATION_DATE  = 
ORIGINATOR     = 

OBJECT_NAME    = STARLINK-36833
OBJECT_ID      = 2026-044J
CENTER_NAME    = EARTH
REF_FRAME      = TEME
TIME_SYSTEM    = UTC
MEAN_ELEMENT_THEORY = SGP/SGP4

EPOCH          = 2026-03-25T14:07:32.849760
MEAN_MOTION    = 15.75254370
ECCENTRICITY   = .00023201
INCLINATION    = 97.2838
RA_OF_ASC_NODE = 45.5242
ARG_OF_PERICENTER = 130.7513
MEAN_ANOMALY   = 229.3954

EPHEMERIS_TYPE = 0
CLASSIFICATION_TYPE = U
NORAD_CAT_ID   = 68109
ELEMENT_SET_NO = 999
REV_AT_EPOCH   = 398
BSTAR          = .10771961E-2
MEAN_MOTION_DOT = .164131E-2
MEAN_MOTION_DDOT = 0

CCSDS_OMM_VERS = 2.0
CREATION_DATE  = 
ORIGINATOR     = 

OBJECT_NAME    = STARLINK-36830
OBJECT_ID      = 2026-044K
CENTER_NAME    = EARTH
REF_FRAME      = TEME
TIME_SYSTEM    = UTC
MEAN_ELEMENT_THEORY = SGP/SGP4

EPOCH          = 2026-03-25T14:08:32.800128
MEAN_MOTION    = 15.75302281
ECCENTRICITY   = .00018725
INCLINATION    = 97.2832
RA_OF_ASC_NODE = 45.5232
ARG_OF_PERICENTER = 127.8492
MEAN_ANOMALY   = 232.2943

EPHEMERIS_TYPE = 0
CLASSIFICATION_TYPE = U
NORAD_CAT_ID   = 68110
ELEMENT_SET_NO = 999
REV_AT_EPOCH   = 398
BSTAR          = .18329375E-2
MEAN_MOTION_DOT = .283928E-2
MEAN_MOTION_DDOT = 0

CCSDS_OMM_VERS = 2.0
CREATION_DATE  = 
ORIGINATOR     = 

OBJECT_NAME    = STARLINK-36791
OBJECT_ID      = 2026-044L
CENTER_NAME    = EARTH
REF_FRAME      = TEME
TIME_SYSTEM    = UTC
MEAN_ELEMENT_THEORY = SGP/SGP4

EPOCH          = 2026-03-25T14:05:30.489216
MEAN_MOTION    = 15.75267645
ECCENTRICITY   = .00016125
INCLINATION    = 97.2836
RA_OF_ASC_NODE = 45.5270
ARG_OF_PERICENTER = 69.4428
MEAN_ANOMALY   = 290.7010

EPHEMERIS_TYPE = 0
CLASSIFICATION_TYPE = U
NORAD_CAT_ID   = 68111
ELEMENT_SET_NO = 999
REV_AT_EPOCH   = 398
BSTAR          = .1443229E-2
MEAN_MOTION_DOT = .221559E-2
MEAN_MOTION_DDOT = 0

CCSDS_OMM_VERS = 2.0
CREATION_DATE  = 
ORIGINATOR     = 

OBJECT_NAME    = STARLINK-36893
OBJECT_ID      = 2026-044M
CENTER_NAME    = EARTH
REF_FRAME      = TEME
TIME_SYSTEM    = UTC
MEAN_ELEMENT_THEORY = SGP/SGP4

EPOCH          = 2026-03-25T14:00:01.999872
MEAN_MOTION    = 15.75214660
ECCENTRICITY   = .00016459
INCLINATION    = 97.2842
RA_OF_ASC_NODE = 45.5261
ARG_OF_PERICENTER = 85.8943
MEAN_ANOMALY   = 258.7308

EPHEMERIS_TYPE = 0
CLASSIFICATION_TYPE = U
NORAD_CAT_ID   = 68112
ELEMENT_SET_NO = 999
REV_AT_EPOCH   = 395
BSTAR          = -.30321181E-3
MEAN_MOTION_DOT = -.45167E-3
MEAN_MOTION_DDOT = 0

CCSDS_OMM_VERS = 2.0
CREATION_DATE  = 
ORIGINATOR     = 

OBJECT_NAME    = STARLINK-36937
OBJECT_ID      = 2026-044N
CENTER_NAME    = EARTH
REF_FRAME      = TEME
TIME_SYSTEM    = UTC
MEAN_ELEMENT_THEORY = SGP/SGP4

EPOCH          = 2026-03-25T14:02:27.004992
MEAN_MOTION    = 15.75257789
ECCENTRICITY   = .00016663
INCLINATION    = 97.2838
RA_OF_ASC_NODE = 45.5289
ARG_OF_PERICENTER = 77.8839
MEAN_ANOMALY   = 282.2613

EPHEMERIS_TYPE = 0
CLASSIFICATION_TYPE = U
NORAD_CAT_ID   = 68113
ELEMENT_SET_NO = 999
REV_AT_EPOCH   = 398
BSTAR          = .10917699E-2
MEAN_MOTION_DOT = .166415E-2
MEAN_MOTION_DDOT = 0

