STARLINK-37046          
1 68102U 26044B   26084.59526832  .00203239  00000+0  13267-2 0  9992
2 68102  97.2833  45.5160 0001844  89.6567 270.4910 15.75269246  3980
STARLINK-37018          
1 68103U 26044C   26084.59385545  .00208781  00000+0  13612-2 0  9998
2 68103  97.2835  45.5184 0001799 103.1434 257.0032 15.75282849  3983
STARLINK-37041          
1 68104U 26044D   26084.59279885  .00140822  00000+0  92764-3 0  9995
2 68104  97.2831  45.5196 0001599  77.5245 282.6199 15.75236343  3981
STARLINK-37021          
1 68105U 26044E   26084.59138693  .00229208  00000+0  14911-2 0  9990
2 68105  97.2834  45.5206 0001439  81.8728 278.2700 15.75276648  3985
STARLINK-37024          
1 68106U 26044F   26084.59032800  .00123361  00000+0  81413-3 0  9999
2 68106  97.2838  45.5228 0001662 119.5362 240.6069 15.75244094  3986
STARLINK-37005          
1 68107U 26044G   26084.59315216  .00238477  00000+0  15498-2 0  9999
2 68107  97.2832  45.5186 0001441 107.9508 252.1915 15.75274095  3984
STARLINK-37017          
1 68108U 26044H   26084.58997606  .00145285  00000+0  95608-3 0  9994
2 68108  97.2833  45.5234 0001798  64.0787 296.0663 15.75246750  3981
STARLINK-36833          
1 68109U 26044J   26084.58857465  .00164131  00000+0  10772-2 0  9992
2 68109  97.2838  45.5242 0002320 130.7513 229.3954 15.75254370  3985
STARLINK-36830          
1 68110U 26044K   26084.58926852  .00283928  00000+0  18329-2 0  9993
2 68110  97.2832  45.5232 0001872 127.8492 232.2943 15.75302281  3980
STARLINK-36791          
1 68111U 26044L   26084.58715844  .00221559  00000+0  14432-2 0  9994
2 68111  97.2836  45.5270 0001612  69.4428 290.7010 15.75267645  3987
STARLINK-36893          
1 68112U 26044M   26084.58335648 -.00045167  00000+0 -30321-3 0  9992
2 68112  97.2842  45.5261 0001645  85.8943 258.7308 15.75214660  3955
STARLINK-36937          
1 68113U 26044N   26084.58503478  .00166415  00000+0  10918-2 0  9998
2 68113  97.2838  45.5289 0001666  77.8839 282.2613 15.75257789  3982
